{"fetched_at":"2026-07-14T06:35:15.414Z","source":"https://celestrak.org/NORAD/elements/gp.php?NAME=YAM&FORMAT=JSON","constellation":"earthdaily-constellation","records":[{"OBJECT_NAME":"YAM-10","OBJECT_ID":"2025-135BE","EPOCH":"2026-07-13T20:09:29.627136","CLASSIFICATION_TYPE":"U","MEAN_MOTION":14.91898401,"ECCENTRICITY":0.0001684,"INCLINATION":97.7752,"RA_OF_ASC_NODE":308.3257,"ARG_OF_PERICENTER":254.436,"MEAN_ANOMALY":105.6673,"EPHEMERIS_TYPE":0,"NORAD_CAT_ID":64580,"ELEMENT_SET_NO":999,"REV_AT_EPOCH":5783,"BSTAR":0.000083922,"MEAN_MOTION_DOT":0.00000793,"MEAN_MOTION_DDOT":0},{"OBJECT_NAME":"YAM-11","OBJECT_ID":"2026-100M","EPOCH":"2026-07-13T16:54:55.920096","CLASSIFICATION_TYPE":"U","MEAN_MOTION":14.90567633,"ECCENTRICITY":0.0009772,"INCLINATION":97.7337,"RA_OF_ASC_NODE":91.5094,"ARG_OF_PERICENTER":6.3194,"MEAN_ANOMALY":353.8146,"EPHEMERIS_TYPE":0,"NORAD_CAT_ID":68991,"ELEMENT_SET_NO":999,"REV_AT_EPOCH":1064,"BSTAR":0.000077471,"MEAN_MOTION_DOT":0.00000703,"MEAN_MOTION_DDOT":0},{"OBJECT_NAME":"YAM-16","OBJECT_ID":"2026-100N","EPOCH":"2026-07-13T17:14:46.519008","CLASSIFICATION_TYPE":"U","MEAN_MOTION":14.91512445,"ECCENTRICITY":0.0004804,"INCLINATION":97.734,"RA_OF_ASC_NODE":91.6485,"ARG_OF_PERICENTER":65.6893,"MEAN_ANOMALY":294.4827,"EPHEMERIS_TYPE":0,"NORAD_CAT_ID":68992,"ELEMENT_SET_NO":999,"REV_AT_EPOCH":1065,"BSTAR":0.000094672,"MEAN_MOTION_DOT":0.00000893,"MEAN_MOTION_DDOT":0},{"OBJECT_NAME":"YAM-13","OBJECT_ID":"2026-100P","EPOCH":"2026-07-13T17:27:07.778304","CLASSIFICATION_TYPE":"U","MEAN_MOTION":14.90408161,"ECCENTRICITY":0.0009738,"INCLINATION":97.7339,"RA_OF_ASC_NODE":91.6366,"ARG_OF_PERICENTER":3.5344,"MEAN_ANOMALY":356.5941,"EPHEMERIS_TYPE":0,"NORAD_CAT_ID":68993,"ELEMENT_SET_NO":999,"REV_AT_EPOCH":1065,"BSTAR":0.000093717,"MEAN_MOTION_DOT":0.00000858,"MEAN_MOTION_DDOT":0},{"OBJECT_NAME":"YAM-15","OBJECT_ID":"2026-100T","EPOCH":"2026-07-13T17:08:02.592096","CLASSIFICATION_TYPE":"U","MEAN_MOTION":14.90650746,"ECCENTRICITY":0.0009559,"INCLINATION":97.7331,"RA_OF_ASC_NODE":91.6479,"ARG_OF_PERICENTER":16.92,"MEAN_ANOMALY":343.2335,"EPHEMERIS_TYPE":0,"NORAD_CAT_ID":68997,"ELEMENT_SET_NO":999,"REV_AT_EPOCH":1065,"BSTAR":0.000086596,"MEAN_MOTION_DOT":0.00000794,"MEAN_MOTION_DDOT":0},{"OBJECT_NAME":"YAM-12","OBJECT_ID":"2026-100Z","EPOCH":"2026-07-13T16:30:31.843584","CLASSIFICATION_TYPE":"U","MEAN_MOTION":14.90422668,"ECCENTRICITY":0.0009653,"INCLINATION":97.7312,"RA_OF_ASC_NODE":91.5114,"ARG_OF_PERICENTER":356.5311,"MEAN_ANOMALY":3.5838,"EPHEMERIS_TYPE":0,"NORAD_CAT_ID":69003,"ELEMENT_SET_NO":999,"REV_AT_EPOCH":1063,"BSTAR":0.00020861,"MEAN_MOTION_DOT":0.00001979,"MEAN_MOTION_DDOT":0},{"OBJECT_NAME":"YAM-14","OBJECT_ID":"2026-100AE","EPOCH":"2026-07-13T21:10:14.632320","CLASSIFICATION_TYPE":"U","MEAN_MOTION":14.90345657,"ECCENTRICITY":0.0006186,"INCLINATION":97.7318,"RA_OF_ASC_NODE":91.7242,"ARG_OF_PERICENTER":40.4967,"MEAN_ANOMALY":319.671,"EPHEMERIS_TYPE":0,"NORAD_CAT_ID":69008,"ELEMENT_SET_NO":999,"REV_AT_EPOCH":1066,"BSTAR":0.000081556,"MEAN_MOTION_DOT":0.00000739,"MEAN_MOTION_DDOT":0}]}
