YAM-10                  
1 64580U 25135BE  26194.83992624  .00000793  00000+0  83922-4 0  9990
2 64580  97.7752 308.3257 0001684 254.4360 105.6673 14.91898401 57839
YAM-11                  
1 68991U 26100M   26194.70481389  .00000703  00000+0  77471-4 0  9993
2 68991  97.7337  91.5094 0009772   6.3194 353.8146 14.90567633 10642
YAM-16                  
1 68992U 26100N   26194.71859397  .00000893  00000+0  94672-4 0  9995
2 68992  97.7340  91.6485 0004804  65.6893 294.4827 14.91512445 10656
YAM-13                  
1 68993U 26100P   26194.72717336  .00000858  00000+0  93717-4 0  9993
2 68993  97.7339  91.6366 0009738   3.5344 356.5941 14.90408161 10651
YAM-15                  
1 68997U 26100T   26194.71391889  .00000794  00000+0  86596-4 0  9993
2 68997  97.7331  91.6479 0009559  16.9200 343.2335 14.90650746 10650
YAM-12                  
1 69003U 26100Z   26194.68786856  .00001979  00000+0  20861-3 0  9998
2 69003  97.7312  91.5114 0009653 356.5311   3.5838 14.90422668 10636
YAM-14                  
1 69008U 26100AE  26194.88211380  .00000739  00000+0  81556-4 0  9992
2 69008  97.7318  91.7242 0006186  40.4967 319.6710 14.90345657 10660
